 2022  4 1 13 0 33.2 LQ 41.097 -78.353 0.10F IST  8 .00 1.7LIST 0.0CIST        1
 GAP=181                   1.5     1.5 31.6                                    E
 2022-04-01-1300-21S.PE____228                                                 6
 BINDERID: 281752                                                              3
 VERSIONID: 2                                                                  3
 CHANNELID: POV2.HHZ.PE.00                                                     3
 CHANNELID: POV2.HHN.PE.00                                                     3
 CHANNELID: POV1.HHE.PE.00                                                     3
 CHANNELID: POV3.HHZ.PE.00                                                     3
 CHANNELID: POV3.HHE.PE.00                                                     3
 CHANNELID: POV4.HHZ.PE.00                                                     3
 CHANNELID: POV4.HHE.PE.00                                                     3
 CHANNELID: PABE.HHZ.PE.--                                                     3
 CHANNELID: PABE.HHN.PE.--                                                     3
 CHANNELID: PALR.HHZ.PE.--                                                     3
 CHANNELID: PACH.HHZ.PE.--                                                     3
 CHANNELID: M57A.HHZ.N4.00                                                     3
 ACTION:HIN 22-04-01 10:04 OP:kah  STATUS:               ID:20220401130032     I
 STAT SP IPHASW D HRMM SECON CODA AMPLIT PERI AZIMU VELO AIN AR TRES W  DIS CAZ7
 POV1 HZ EP   0   13 0 36.69                              90   -.0101021.20 297 
 PSDB HZ EP   0   13 0 38.75                              90   0.0001033.50 277 
 PAKC HZ EP   0   13 0 40.97                              90   0.0001046.80  48 
 PABE HZ EP   0   13 0 43.06                              90   0.0001059.40  96 
 PABE HN  IAML    13 0 52.73        56.6 1.48                                   
 PACC HN  IAML    13 0 57.86        46.7 1.46                                   
 POV1 HE  IAML    13 0 40.67      5095.9 0.39                                   
 PAKC HN  IAML    13 0 49.19        57.8 1.40                                   
 PSDB HE  IAML    13 0 45.40       149.4 1.25                                   
 WRPS HN  IAML    13 0 51.00        53.5 0.87                                   
